NORAD_CAT_ID,OBJECT_NAME,OBJECT_TYPE,EPOCH,MEAN_MOTION,ECCENTRICITY,INCLINATION,RA_OF_ASC_NODE,ARG_OF_PERICENTER,MEAN_ANOMALY,BSTAR,MEAN_MOTION_DOT,MEAN_MOTION_DDOT,TLE_LINE0,TLE_LINE1,TLE_LINE2,SEMIMAJOR_AXIS,PERIOD,APOGEE,PERIGEE,DECAYED
52091.0,STARLINK-3713,PAYLOAD,2022-12-08 19:09:41,15.08828762,0.0002987,53.2201,17.2891,29.3607,330.7553,-2.4328e-05,-6.76e-06,0.0,0 STARLINK-3713,1 52091U 22029D   22342.79839745 -.00000676  00000-0 -24328-4 0  9991,2 52091  53.2201  17.2891 0002987  29.3607 330.7553 15.08828762 41472,6917.915,95.438,541.846,537.7130000000002,0.0
52091.0,STARLINK-3713,PAYLOAD,2022-12-10 09:18:57,15.08833269,0.0003109,53.2207,10.1509,22.9372,337.1759,3.0743e-05,2.01e-06,0.0,0 STARLINK-3713,1 52091U 22029D   22344.38816675  .00000201  00000-0  30743-4 0  9995,2 52091  53.2207  10.1509 0003109  22.9372 337.1759 15.08833269 41715,6917.901,95.438,541.9169999999998,537.615,0.0
52091.0,STARLINK-3713,PAYLOAD,2022-12-11 02:48:09,15.08860633,0.0004542,53.2198,6.8772,296.1687,63.8838,-0.00013558,-2.448e-05,0.0,0 STARLINK-3713,1 52091U 22029D   22345.11677414 -.00002448  00000-0 -13558-3 0  9994,2 52091  53.2198   6.8772 0004542 296.1687  63.8838 15.08860633 41822,6917.816999999999,95.436,542.8240000000002,536.54,0.0
52091.0,STARLINK-3713,PAYLOAD,2022-12-11 10:45:07,15.08821633,0.0002556,53.2201,5.3903,18.7123,341.3963,0.00053482,8.23e-05,0.0,0 STARLINK-3713,1 52091U 22029D   22345.44799795  .00008230  00000-0  53482-3 0  9990,2 52091  53.2201   5.3903 0002556  18.7123 341.3963 15.08821633 41878,6917.937,95.439,541.57,538.033,0.0
52091.0,STARLINK-3713,PAYLOAD,2022-12-12 01:03:35,15.08844572,0.0002497,53.22,2.7153,357.2977,2.8002,0.00017864,2.556e-05,0.0,0 STARLINK-3713,1 52091U 22029D   22346.04415678  .00002556  00000-0  17864-3 0  9991,2 52091  53.2200   2.7153 0002497 357.2977   2.8002 15.08844572 41967,6917.866,95.437,541.4590000000002,538.004,0.0
52091.0,STARLINK-3713,PAYLOAD,2022-12-12 07:25:07,15.08851069,0.0002801,53.22,1.5248,33.0644,327.0523,9.7734e-05,1.268e-05,0.0,0 STARLINK-3713,1 52091U 22029D   22346.30911941  .00001268  00000-0  97734-4 0  9998,2 52091  53.2200   1.5248 0002801  33.0644 327.0523 15.08851069 42003,6917.847,95.437,541.649,537.774,0.0
52091.0,STARLINK-3713,PAYLOAD,2022-12-13 00:54:22,15.08845726,0.0003025,53.2201,358.2554,34.1742,325.9444,-2.7955e-05,-7.34e-06,0.0,0 STARLINK-3713,1 52091U 22029D   22347.03776273 -.00000734  00000-0 -27955-4 0  9993,2 52091  53.2201 358.2554 0003025  34.1742 325.9444 15.08845726 42110,6917.863,95.437,541.821,537.635,0.0
52091.0,STARLINK-3713,PAYLOAD,2022-12-13 12:02:04,15.08847319,0.0003018,53.2196,356.1734,31.1445,328.9726,-4.9401e-06,-3.67e-06,0.0,0 STARLINK-3713,1 52091U 22029D   22347.50143882 -.00000367  00000-0 -49401-5 0  9992,2 52091  53.2196 356.1734 0003018  31.1445 328.9726 15.08847319 42182,6917.858,95.437,541.811,537.635,0.0
52091.0,STARLINK-3713,PAYLOAD,2022-12-13 18:23:35,15.08858831,0.0003054,53.2198,354.9848,29.9905,330.1262,3.934e-05,3.38e-06,0.0,0 STARLINK-3713,1 52091U 22029D   22347.76638803  .00000338  00000-0  39340-4 0  9998,2 52091  53.2198 354.9848 0003054  29.9905 330.1262 15.08858831 42228,6917.823,95.436,541.8009999999998,537.575,0.0
52091.0,STARLINK-3713,PAYLOAD,2022-12-14 07:06:41,15.08843013,0.0002515,53.2178,352.6056,29.4386,330.6747,1.383e-05,-6.8e-07,0.0,0 STARLINK-3713,1 52091U 22029D   22348.29631452 -.00000068  00000-0  13830-4 0  9997,2 52091  53.2178 352.6056 0002515  29.4386 330.6747 15.08843013 42309,6917.871,95.437,541.476,537.996,0.0
52091.0,STARLINK-3713,PAYLOAD,2022-12-14 11:52:51,15.08840452,0.0002658,53.218,351.7137,28.4023,331.7113,-1.1572e-05,-4.73e-06,0.0,0 STARLINK-3713,1 52091U 22029D   22348.49503695 -.00000473  00000-0 -11572-4 0  9998,2 52091  53.2180 351.7137 0002658  28.4023 331.7113 15.08840452 42333,6917.879,95.438,541.5830000000002,537.905,0.0
52091.0,STARLINK-3713,PAYLOAD,2022-12-15 10:08:14,15.08842974,0.0003163,53.2195,347.552,26.325,333.7903,7.4115e-05,8.91e-06,0.0,0 STARLINK-3713,1 52091U 22029D   22349.42239303  .00000891  00000-0  74115-4 0  9998,2 52091  53.2195 347.5520 0003163  26.3250 333.7903 15.08842974 42474,6917.871,95.437,541.924,537.548,0.0
52091.0,STARLINK-3713,PAYLOAD,2022-12-15 11:43:38,15.08837464,0.0003145,53.2191,347.255,26.38,333.7352,4.6945e-05,4.59e-06,0.0,0 STARLINK-3713,1 52091U 22029D   22349.48863736  .00000459  00000-0  46945-4 0  9997,2 52091  53.2191 347.2550 0003145  26.3800 333.7352 15.08837464 42488,6917.888000000001,95.438,541.929,537.577,0.0
52091.0,STARLINK-3713,PAYLOAD,2022-12-15 16:29:47,15.08841486,0.0003195,53.2188,346.3632,25.3962,334.7187,-9.2653e-06,-4.36e-06,0.0,0 STARLINK-3713,1 52091U 22029D   22349.68735622 -.00000436  00000-0 -92653-5 0  9996,2 52091  53.2188 346.3632 0003195  25.3962 334.7187 15.08841486 42518,6917.876,95.437,541.951,537.531,0.0
52091.0,STARLINK-3713,PAYLOAD,2022-12-16 09:59:02,15.08836808,0.0002795,53.2198,343.0929,29.8967,330.2184,7.3115e-05,8.75e-06,0.0,0 STARLINK-3713,1 52091U 22029D   22350.41599665  .00000875  00000-0  73115-4 0  9990,2 52091  53.2198 343.0929 0002795  29.8967 330.2184 15.08836808 42623,6917.89,95.438,541.689,537.822,0.0
52091.0,STARLINK-3713,PAYLOAD,2022-12-17 00:17:30,15.08832141,0.0003035,53.2202,340.4152,25.9339,334.1805,-2.0687e-05,-6.18e-06,0.0,0 STARLINK-3713,1 52091U 22029D   22351.01216397 -.00000618  00000-0 -20687-4 0  9998,2 52091  53.2202 340.4152 0003035  25.9339 334.1805 15.08832141 42715,6917.904,95.438,541.869,537.67,0.0
52091.0,STARLINK-3713,PAYLOAD,2022-12-17 08:14:27,15.08829486,0.0003051,53.2197,338.9288,23.8987,336.2146,-8.9965e-05,-1.7199999999999998e-05,0.0,0 STARLINK-3713,1 52091U 22029D   22351.34336938 -.00001720  00000-0 -89965-4 0  9997,2 52091  53.2197 338.9288 0003051  23.8987 336.2146 15.08829486 42768,6917.913000000001,95.438,541.888,537.6669999999998,0.0
52091.0,STARLINK-3713,PAYLOAD,2022-12-17 16:11:23,15.08826233,0.0003092,53.22,337.4416,25.2134,334.9008,-3.4703e-05,-8.41e-06,0.0,0 STARLINK-3713,1 52091U 22029D   22351.67457214 -.00000841  00000-0 -34703-4 0  9997,2 52091  53.2200 337.4416 0003092  25.2134 334.9008 15.08826233 42810,6917.922,95.438,541.9259999999998,537.648,0.0
52091.0,STARLINK-3713,PAYLOAD,2022-12-18 08:05:13,15.08845521,0.0003027,53.2196,334.4679,25.8576,334.2567,0.00014213,1.975e-05,0.0,0 STARLINK-3713,1 52091U 22029D   22352.33695713  .00001975  00000-0  14213-3 0  9999,2 52091  53.2196 334.4679 0003027  25.8576 334.2567 15.08845521 42911,6917.864000000001,95.437,541.823,537.634,0.0
52091.0,STARLINK-3713,PAYLOAD,2022-12-18 11:15:59,15.08848311,0.0003003999999999,53.2195,333.8731,27.2978,332.8171,0.00015037,2.106e-05,0.0,0 STARLINK-3713,1 52091U 22029D   22352.46943489  .00002106  00000-0  15037-3 0  9991,2 52091  53.2195 333.8731 0003004  27.2978 332.8171 15.08848311 42936,6917.855,95.437,541.798,537.6419999999998,0.0
52091.0,STARLINK-3713,PAYLOAD,2022-12-18 22:23:42,15.08829079,0.000299,53.2197,331.7916,26.8521,333.2626,2.2552e-05,7e-07,0.0,0 STARLINK-3713,1 52091U 22029D   22352.93313283  .00000070  00000-0  22552-4 0  9995,2 52091  53.2197 331.7916 0002990  26.8521 333.2626 15.08829079 43001,6917.9140000000025,95.438,541.847,537.71,0.0
52091.0,STARLINK-3713,PAYLOAD,2022-12-19 07:56:00,15.08838435,0.0003056,53.2183,330.0064,35.9102,324.2096,0.00011509,1.544e-05,0.0,0 STARLINK-3713,1 52091U 22029D   22353.33056597  .00001544  00000-0  11509-3 0  9998,2 52091  53.2183 330.0064 0003056  35.9102 324.2096 15.08838435 43065,6917.885,95.438,541.864,537.636,0.0
52091.0,STARLINK-3713,PAYLOAD,2022-12-19 15:52:57,15.08818971,0.0002642,53.2194,328.5209,27.1787,332.9343,1.7687e-06,-2.6e-06,0.0,0 STARLINK-3713,1 52091U 22029D   22353.66178042 -.00000260  00000-0  17687-5 0  9994,2 52091  53.2194 328.5209 0002642  27.1787 332.9343 15.08818971 43112,6917.945,95.439,541.637,537.982,0.0
52091.0,STARLINK-3713,PAYLOAD,2022-12-20 04:36:02,15.08831677,0.0002698,53.2202,326.1427,24.8108,335.3014,-3.5459e-05,-8.53e-06,0.0,0 STARLINK-3713,1 52091U 22029D   22354.19169696 -.00000853  00000-0 -35459-4 0  9993,2 52091  53.2202 326.1427 0002698  24.8108 335.3014 15.08831677 43198,6917.906,95.438,541.637,537.904,0.0
52091.0,STARLINK-3713,PAYLOAD,2022-12-20 15:43:44,15.08840891,0.0002639,53.2184,324.0605,37.2774,322.8401,-5.8412e-05,-1.218e-05,0.0,0 STARLINK-3713,1 52091U 22029D   22354.65537151 -.00001218  00000-0 -58412-4 0  9999,2 52091  53.2184 324.0605 0002639  37.2774 322.8401 15.08840891 43261,6917.878000000002,95.437,541.568,537.9169999999998,0.0
52091.0,STARLINK-3713,PAYLOAD,2022-12-21 04:26:50,15.08833019,0.0002885,53.2201,321.6807,44.6057,315.5167,-7.2687e-05,-1.445e-05,0.0,0 STARLINK-3713,1 52091U 22029D   22355.18530240 -.00001445  00000-0 -72687-4 0  9992,2 52091  53.2201 321.6807 0002885  44.6057 315.5167 15.08833019 43348,6917.901999999999,95.438,541.763,537.771,0.0
52091.0,STARLINK-3713,PAYLOAD,2022-12-22 04:17:36,15.08840921,0.0002317,53.2174,317.2209,44.1523,315.9654,0.00015675,2.207e-05,0.0,0 STARLINK-3713,1 52091U 22029D   22356.17889311  .00002207  00000-0  15675-3 0  9996,2 52091  53.2174 317.2209 0002317  44.1523 315.9654 15.08840921 43498,6917.878000000002,95.437,541.345,538.14,0.0
52091.0,STARLINK-3713,PAYLOAD,2022-12-22 21:46:52,15.08826144,0.0002628,53.2173,313.9541,45.2698,314.8508,0.000137,1.892e-05,0.0,0 STARLINK-3713,1 52091U 22029D   22356.90754755  .00001892  00000-0  13700-3 0  9996,2 52091  53.2173 313.9541 0002628  45.2698 314.8508 15.08826144 43609,6917.9230000000025,95.438,541.606,537.97,0.0
52091.0,STARLINK-3713,PAYLOAD,2022-12-23 00:57:38,15.08829708,0.0002307,53.2175,313.3561,54.3048,305.8159,0.00013262,1.822e-05,0.0,0 STARLINK-3713,1 52091U 22029D   22357.04002706  .00001822  00000-0  13262-3 0  9990,2 52091  53.2175 313.3561 0002307  54.3048 305.8159 15.08829708 43624,6917.9119999999975,95.438,541.373,538.181,0.0
